#cP2009 11 26  0  0  0.00000000      96 ORBIT IGS05 HLM  IGS
## 1559 345600.00000000   900.00000000 55161 0.0000000000000
+   32   G01G02G03G04G05G06G07G08G09G10G11G12G13G14G15G16G17
+        G18G19G20G21G22G23G24G25G26G27G28G29G30G31G32  0  0
+          0  0  0  0  0  0  0  0  0  0  0  0  0  0  0  0  0
+          0  0  0  0  0  0  0  0  0  0  0  0  0  0  0  0  0
+          0  0  0  0  0  0  0  0  0  0  0  0  0  0  0  0  0
++         4  2  2  2  2  2  2  3  3  3  2  2  2  2  2  2  3
++         2  2  2  2  2  2  4  2  2  2  2  2  2  2  3  0  0
++         0  0  0  0  0  0  0  0  0  0  0  0  0  0  0  0  0
++         0  0  0  0  0  0  0  0  0  0  0  0  0  0  0  0  0
++         0  0  0  0  0  0  0  0  0  0  0  0  0  0  0  0  0
%c G  cc GPS ccc cccc cccc cccc cccc ccccc ccccc ccccc ccccc
%c cc cc ccc ccc cccc cccc cccc cccc ccccc ccccc ccccc ccccc
%f  1.2500000  1.025000000  0.00000000000  0.000000000000000
%f  0.0000000  0.000000000  0.00000000000  0.000000000000000
%i    0    0    0    0      0      0      0      0         0
%i    0    0    0    0      0      0      0      0         0
/* FINAL ORBIT COMBINATION FROM WEIGHTED AVERAGE OF:        
/* cod emr esa gfz grg jpl mit ngs sio                      
/* REFERENCED TO IGS TIME (IGST) AND TO WEIGHTED MEAN POLE: 
/* PCV:IGS05_1552 OL/AL:FES2004  NONE     Y  ORB:CMB CLK:CMB
*  2009 11 26  2 15  0.00000000
PG01   7424.299361 -15345.044661 -20442.827529 999999.999999
PG02  16303.033418    438.874278 -20963.723877    196.034966  8  9  7 120       
PG03 -20874.461322  -4764.854537  15581.726919    479.522125  5  7  7 140       
PG04  11163.571938  12452.804241 -20719.053136   -376.978853  8  9  6 105       
PG05  26452.776924  -2286.928364  -1673.931804    -38.269275  8  9  8 127       
PG06 -20905.639221  -8440.722213  14297.688083    262.639146  6  7  7 153       
PG07  -6256.777824  25066.143455   5784.167879      7.049392  7  6  6 144       
PG08   2212.788138  20188.448071  16791.759653      0.154555  9  8 10 174       
PG09  14847.126034 -18927.926102  10539.007363     90.561883 10  9  8 144       
PG10  26143.229827   1288.754197  -5641.673787    -29.144656  8  9  9 147       
PG11 -11643.626051  21559.804497   9550.175289    -31.101125  6  6  8 148       
PG12  20661.403671 -11026.900942 -12351.487712   -184.978736  8  5  7 145       
PG13   2583.424853  21722.317468 -15175.782590    306.377521  7  4  6 140       
PG14 -14773.281221 -22147.422724    774.960296    -19.831992  7  5  7 132       
PG15  16567.727327  -2559.957484  20650.765670   -319.541174  7  8  8 136       
PG16 -25006.370029  -3380.425519  -8638.070460    -12.585623 10 10  4 109       
PG17  15654.664998  21597.330398    114.234802    105.879633  7  9  8 143       
PG18    259.178170 -15843.458413  21548.698855     30.264912  5  8  5 140       
PG19 -15698.233714   3290.058196  21248.818052     -0.655223     7  7 117       
PG20 -16344.684242  14076.967982 -15589.293247     66.790687 10  6  6 133       
PG21   2144.314927 -24131.794678  10414.327065    -23.688982  7  9  6 128       
PG22 -13123.235895 -12968.589351  19296.815608    185.419421  7  7  2 104       
PG23  -7822.259739  13870.592881 -21233.209192    385.446084  8  8  7 154       
PG24  13360.229526 -22906.735804  -2972.339211    239.652556 12 13 13 147       
PG25  -8458.883736  25263.534723   -720.630605     32.768235 10  4  8 126       
PG26  -9190.163704 -23137.878674   7992.038942      1.508535  5  8  7 143       
PG27  16246.902151 -15252.785494  15096.955767    103.006637  6  5  7 144       
PG28  10483.619752  13440.460175  20896.160958    -25.182596  7  9  9 110       
PG29     77.813844 -20339.764921 -17010.926786     77.143010  7  7  8 147       
PG30   9311.224708 -15726.793853 -19638.452105    196.316822  7  6  7  78       
PG31 -11582.539825 -10007.730537 -21471.868746    -60.256074  6  8  4 138       
PG32 -23304.454222   7577.927456  -9473.956938    150.518915  8 10  8  62       
*  2009 11 26  2 30  0.00000000
PG01   9664.659094 -15611.953677 -19255.136239 999999.999999
PG02  15534.195642   2736.759570 -21409.200173    196.039327  8  9  7 103       
PG03 -21939.333326  -6136.915104  13585.251337    479.526054  6  7  7 132       
PG04  10225.859352  14556.918248 -19770.442518   -376.995243  8  9  6 128       
PG05  26146.641105  -1986.751234  -4496.624436    -38.263953  8  8  8 126       
PG06 -21712.343316  -9714.690471  12098.163128    262.639993  6  6  7 154       
PG07  -6658.252719  25451.227413   2959.558119      7.048637  7  7  6 146       
PG08   1318.374832  21782.579593  14726.959453      0.154191  9  8 10 129       
PG09  14558.361542 -17505.948952  12973.194055     90.564110 10  9  8 166       
PG10  25409.053058   1618.806544  -8318.483747    -29.145635  8  9  8 152       
PG11 -11878.386316  20228.498151  11871.078406    -31.102903  6  6  8 139       
PG12  21960.403261 -11013.997802  -9874.059962   -184.974195  8  5  7 144       
PG13   1435.813302  20298.933806 -17183.406607    306.377813  8  5  6 135       
PG14 -14496.788929 -22058.121201   3660.400070    -19.827419  7  5  7 135       
PG15  17971.194028   -739.525835  19602.088706   -319.540291  7  8  8 134       
PG16 -23909.962878  -3718.943321 -11187.964516    -12.589607  9  9  3  91       
PG17  15361.275343  21615.532664   2948.384417    105.882726  8  9  8 142       
PG18   2646.542013 -16107.509532  21150.753926     30.267098  5  8  6 138       
PG19 -17003.381521   1304.940680  20467.749368     -0.657026     6  6 125       
PG20 -18011.683901  14157.903071 -13520.581615     66.789678 10  7  6 124       
PG21   2842.434074 -24963.306571   7852.785408    -23.691283  8  9  7 126       
PG22 -10913.606969 -13371.193539  20370.536912    185.419037  6  7  2 118       
PG23  -9400.546560  11988.579538 -21760.197611    385.445427  8  8  7 153       
PG24  13395.709403 -22336.432374  -5734.093342    239.655288 12 13 13 154       
PG25  -8586.284218  24935.347876  -3573.402343     32.780782 10  5  7 126       
PG26  -8362.166250 -22319.481617  10657.414097      1.506459  5  8  6 141       
PG27  15846.175053 -13567.257223  17097.264505    103.009959  6  5  7 135       
PG28   8173.422612  13781.359975  21680.091161    -25.182327  7  9  9 103       
PG29   1445.773758 -18799.739701 -18631.764610     77.145512  7  7  8 144       
PG30  11392.333052 -16021.476748 -18218.987586    196.318549  7  7  7  92       
PG31 -10647.536158 -12284.317510 -20756.529965    -60.255075  6  8  5 142       
PG32 -24307.072304   7388.220822  -6810.666291    150.511942  8 10  9  76       
*  2009 11 26  2 45  0.00000000
PG01  11740.381881 -15962.117394 -17737.830260 999999.999999
PG02  14871.449426   5093.565015 -21487.628594    196.043485  8  9  6 133       
PG03 -22885.471568  -7297.077392  11354.005420    479.530599  5  7  7 133       
PG04   9428.460407  16587.881834 -18483.008254   -377.011643  8  8  6 111       
PG05  25549.704522  -1601.702112  -7242.309502    -38.258408  8  8  8 132       
PG06 -22396.517237 -10767.422301   9693.367225    262.641114  6  6  8 153       
PG07  -6940.844832  25547.865499     83.509437      7.048138  7  7  6 140       
PG08    603.652166  23190.799261  12401.954627      0.154989  9  8 10 133       
PG09  14276.112293 -15807.757069  15174.895344     90.566825  9  8  8 155       
PG10  24406.799904   2042.752177 -10855.694061    -29.146974  8  9  8 158       
PG11 -12143.958179  18657.745209  13981.348343    -31.104109  5  7  8 137       
PG12  22973.104704 -11008.841820  -7225.100103   -184.969548  8  5  7 143       
PG13     76.510152  18780.795525 -18897.784290    306.377703  8  6  6 133       
PG14 -14008.358093 -21737.610512   6483.469347    -19.823172  6  6  6 133       
PG15  19371.671854    906.122233  18217.750273   -319.539595  7  8  8 136       
PG16 -22560.908420  -4170.800737 -13547.419338    -12.593139  9  9  3 108       
PG17  14860.617194  21411.462542   5732.478753    105.886192  8  9  7 145       
PG18   4958.815993 -16477.088224  20395.237394     30.269507  5  8  6 139       
PG19 -18342.017005   -523.099989  19337.671480     -0.658759     6  6 110       
PG20 -19435.231907  14260.070646 -11220.287936     66.789077 10  7  6 133       
PG21   3409.650551 -25543.499255   5152.455480    -23.693432  7  9  7 122       
PG22  -8627.042410 -13900.041886  21099.173559    185.418166  6  7  2  97       
PG23 -11100.802941  10167.138422 -21912.896522    385.445019  8  9  7 149       
PG24  13354.442020 -21481.625087  -8398.341475 999999.999999
PG25  -8666.780821  24300.967257  -6365.000562     32.793337 10  6  7 106       
PG26  -7298.788867 -21316.567434  13129.685408      1.504799  5  8  6 142       
PG27  15488.564121 -11666.973567  18816.616286    103.014176  7  5  7 137       
PG28   5817.664183  14261.132561  22107.220898    -25.181780  7  9  8 118       
PG29   3000.792720 -17206.886387 -19930.084819     77.148062  7  7  7 147       
PG30  13288.629917 -16377.880936 -16494.441862    196.320420  6  6  7  80       
PG31  -9866.724582 -14510.159842 -19676.063508    -60.254541  5  7  6 144       
PG32 -25007.094025   7211.091888  -4026.652321    150.505205  8 10  9 109       
EOF
